DELTA 2 R/B(1)          
1 20453U 90008B   26046.15089972  .00061323  00000+0  79537-3 0  9998
2 20453  35.6054 322.4081 0090984  48.0753 312.7696 15.52817677922620
COSMOS 2058             
1 20465U 90010A   26046.53270935  .00004817  00000+0  28555-3 0  9996
2 20465  82.4654  69.2561 0011352  58.2033 302.0301 15.11113810938898
SL-14 R/B               
1 20466U 90010B   26046.76663093  .00000446  00000+0  51127-4 0  9999
2 20466  82.5017 287.9841 0020263  16.5332 343.6539 14.83549839925233
SL-14 R/B               
1 20511U 90018B   26046.56076988  .00000494  00000+0  59004-4 0  9992
2 20511  82.5179 243.7772 0016768 160.1142 200.0729 14.82120668919308
HST                     
1 20580U 90037B   26046.42870873  .00008875  00000+0  29710-3 0  9990
2 20580  28.4670 191.8156 0001369 214.6582 145.3924 15.29118613769908
SL-16 R/B               
1 20625U 90046B   26046.85345203  .00000330  00000+0  19499-3 0  9992
2 20625  71.0014 343.7719 0015157 330.0851  29.9404 14.15010972845301
COSMOS 2084             
1 20663U 90055A   26046.40553536  .00003427  00000+0  25001-3 0  9991
2 20663  62.7897  51.5722 0020542 185.1591 174.9301 15.05503510932962
SL-6 R/B(2)             
1 20666U 90055D   26046.95658721  .00002653  00000+0  20735-3 0  9995
2 20666  62.7847 327.7512 0021453 341.1718  18.8586 15.03484561934923
SL-8 R/B                
1 20775U 90078B   26046.59637549  .00015769  00000+0  46309-3 0  9993
2 20775  82.9014 271.1696 0366373  88.0366 276.2761 14.88315131806019
SL-8 R/B                
1 21088U 91006B   26046.84321999  .00000021  00000+0  55143-5 0  9993
2 21088  82.9444 186.2866 0023758  96.5419  13.6108 13.77492320761065
OKEAN-3                 
1 21397U 91039A   26046.93370840  .00004830  00000+0  34098-3 0  9997
2 21397  82.5190 357.9127 0016017  48.5610 311.6990 15.04631733861762
COSMOS 2151             
1 21422U 91042A   26046.87054013  .00001700  00000+0  13427-3 0  9990
2 21422  82.4952 104.7258 0013751 129.2984 230.9462 15.00020776859929
